{
    "links": {
        "self": "http://www.neowsapp.com/rest/v1/neo/54053763?api_key=iIulBulltgU6a56xZRHN4H3l9WmuAYTsLGpBGhQ2"
    },
    "id": "54053763",
    "neo_reference_id": "54053763",
    "name": "(2020 RH1)",
    "designation": "2020 RH1",
    "nasa_jpl_url": "http://ssd.jpl.nasa.gov/sbdb.cgi?sstr=54053763",
    "absolute_magnitude_h": 19.668,
    "estimated_diameter": {
        "kilometers": {
            "estimated_diameter_min": 0.3097098206,
            "estimated_diameter_max": 0.6925322121
        },
        "meters": {
            "estimated_diameter_min": 309.70982058,
            "estimated_diameter_max": 692.5322121162
        },
        "miles": {
            "estimated_diameter_min": 0.1924447009,
            "estimated_diameter_max": 0.4303194332
        },
        "feet": {
            "estimated_diameter_min": 1016.1083677518,
            "estimated_diameter_max": 2272.0873827995
        }
    },
    "is_potentially_hazardous_asteroid": false,
    "close_approach_data": [
        {
            "close_approach_date": "2020-07-26",
            "close_approach_date_full": "2020-Jul-26 06:54",
            "epoch_date_close_approach": 1595746440000,
            "relative_velocity": {
                "kilometers_per_second": "34.7429715459",
                "kilometers_per_hour": "125074.6975652206",
                "miles_per_hour": "77716.5530510116"
            },
            "miss_distance": {
                "astronomical": "0.4205901577",
                "lunar": "163.6095713453",
                "kilometers": "62919391.734884099",
                "miles": "39096297.1046706062"
            },
            "orbiting_body": "Earth"
        }
    ],
    "orbital_data": {
        "orbit_id": "6",
        "orbit_determination_date": "2020-09-25 06:31:10",
        "first_observation_date": "2020-09-06",
        "last_observation_date": "2020-09-25",
        "data_arc_in_days": 19,
        "observations_used": 35,
        "orbit_uncertainty": "9",
        "minimum_orbit_intersection": ".217474",
        "jupiter_tisserand_invariant": "3.994",
        "epoch_osculation": "2459105.5",
        "eccentricity": ".5772624550152102",
        "semi_major_axis": "1.565381248098911",
        "inclination": "41.53946746804889",
        "ascending_node_longitude": "272.314604180874",
        "orbital_period": "715.3665309480482",
        "perihelion_distance": ".6617454257865599",
        "perihelion_argument": "307.0630410117123",
        "aphelion_distance": "2.469017070411263",
        "perihelion_time": "2459023.877496437726",
        "mean_anomaly": "41.07558854266918",
        "mean_motion": ".5032385279793641",
        "equinox": "J2000",
        "orbit_class": {
            "orbit_class_type": "APO",
            "orbit_class_description": "Near-Earth asteroid orbits which cross the Earth’s orbit similar to that of 1862 Apollo",
            "orbit_class_range": "a (semi-major axis) > 1.0 AU; q (perihelion) < 1.017 AU"
        }
    },
    "is_sentry_object": false
}